a   0.1381519      Node   310.98434     -0.89081013     +0.45256610
e   0.2460574      Incl.  149.75284     +0.13897573     +0.35626599
P   1.66           H   17.33          P/d   606.99
From 21 observations 2021 Aug. 12-2022 Sept. 3, mean residual 0".12.
</pre>
 <p><hr><p>
<h2>S/2021 J 2</h2>
<pre>
Epoch 2023 Feb. 25.0 TT = JDT 2460000.5                 Alexanders
M 320.08120              (2000.0)            P               Q
n   0.57328382     Peri.   71.71210     +0.02854044     -0.98632905
a   0.1413164      Node   340.99094     -0.99607295     -0.01444934
e   0.3413342      Incl.  150.11397     +0.08380999     +0.16415307
P   1.72           H   17.29          P/d   627.96
From 17 observations 2021 Aug. 12-2022 Sept. 3, mean residual 0".19.
</pre>
 <p><hr><p>
<h2>S/2021 J 3</h2>
<pre>
Epoch 2023 Feb. 25.0 TT = JDT 2460000.5                 Alexanders
M  64.69138              (2000.0)            P               Q
n   0.55913942     Peri.  291.11314     +0.39880414     -0.83176806
a   0.1436897      Node   230.78156     -0.54023455     -0.55335915
e   0.3556841      Incl.  150.10358     -0.74101410     -0.04422158
P   1.76           H   17.16          P/d   643.85
From 15 observations 2021 Aug. 12-2022 Oct. 15, mean residual 0".22.
</pre>
 <p><hr><p>
<h2>S/2021 J 4</h2>
<pre>
Epoch 2023 Feb. 25.0 TT = JDT 2460000.5                 Alexanders
M 102.76481              (2000.0)            P               Q
n   0.50695184     Peri.  217.30730     +0.98586637     +0.00946395
a   0.1533891      Node   218.88401     +0.10513305     -0.81229397
e   0.1585459      Incl.  164.54657     -0.13043978     -0.58317145
P   1.94           H   17.39          P/d   710.13
From 11 observations 2021 Aug. 14-2022 Oct. 15, mean residual 0".10.
</pre>
 <p><hr><p>
<h2>S/2021 J 5</h2>
<pre>
Epoch 2023 Feb. 25.0 TT = JDT 2460000.5                 Alexanders
M 329.67857              (2000.0)            P               Q
n   0.51078352     Peri.   32.01323     -0.76728351     -0.58080537
a   0.1526210      Node   249.95820     -0.63233425     +0.61448821
e   0.2001547      Incl.  163.17500     -0.10690846     +0.53391886
P   1.93           H   16.80          P/d   704.80
From 12 observations 2021 Sept. 5-2022 Oct. 15, mean residual 0".14.
</pre>
 <p><hr><p>
<h2>S/2021 J 6</h2>
<pre>
Epoch 2023 Feb. 25.0 TT = JDT 2460000.5                 Alexanders
M  77.36574              (2000.0)            P               Q
n   0.49143400     Peri.  254.84930     +0.13845013     -0.98991400
a   0.1566013      Node   172.60903     -0.79518250     -0.09303756
e   0.3625334      Incl.  166.49991     -0.59035274     -0.10683762
P   2.01           H   17.28          P/d   732.55
From 16 observations 2010 Oct. 2-2022 Oct. 15, mean residual 0".05.
</pre>
 <p><hr><p>
<h2>S/2022 J 1</h2>
<pre>
Epoch 2024 Mar. 31.0 TT = JDT 2460400.5                 Alexanders
M 184.22280              (2000.0)            P               Q
n   0.48087120     Peri.  334.92072     +0.24926705     +0.94981735
a   0.1588863      Node    51.07021     +0.92444417     -0.29151508
e   0.1357222      Incl.  165.94051     +0.28856353     +0.11342824
P   2.05           H   17.00          P/d   748.64
From 29 observations 2003 Feb. 24-2023 Oct. 7, mean residual 0".16.
</pre>
 <p><hr><p>
<h2>S/2022 J 2</h2>
<pre>
Epoch 2024 Mar. 31.0 TT = JDT 2460400.5                 Alexanders
M  97.80253              (2000.0)            P               Q
n   0.47958182     Peri.  145.16811     +0.97862856     +0.17425982
a   0.1591710      Node   154.53141     +0.07608261     -0.80008186
e   0.1773868      Incl.  165.29213     +0.19104340     -0.57402311
P   2.06           H   17.49          P/d   750.65
From 11 observations 2022 Sept. 18-2023 Oct. 7, mean residual 0".17.
</pre>
 <p><hr><p>
<h2>S/2022 J 3</h2>
<pre>
Epoch 2024 Mar. 31.0 TT = JDT 2460400.5                 Alexanders
M 294.51228              (2000.0)            P               Q
n   0.59808556     Peri.   67.60587     -0.44521417     -0.75770717
a   0.1373821      Node   302.06960     -0.87549863     +0.48014415
e   0.2125986      Incl.  145.73211     +0.18784700     +0.44197447
P   1.65           H   17.34          P/d   601.92
From 34 observations 2003 Feb. 26-2023 Oct. 7, mean residual 0".16.
</pre>
 <p><hr><p>
These calculations have been performed on the
<a href="http://www.minorplanetcenter.net/iau/Ack/TamkinFoundation.html">Tamkin
Foundation Computing Network</a>.
<p><hr><p>
<center><a href="http://www.minorplanetcenter.net/iau/mpc.html"><IMG SRC="http://www.minorplanetcenter.net/iau/figs/mpc.gif" ALT=""> MPC</a></center>
</body>
</html>
